[{"OBJECT_NAME":"STARLINK-36717","OBJECT_ID":"2026-026Y","EPOCH":"2026-03-09T22:00:01.999584","MEAN_MOTION":15.49158128,"ECCENTRICITY":0.00015847,"INCLINATION":97.2845,"RA_OF_ASC_NODE":123.5271,"ARG_OF_PERICENTER":85.907,"MEAN_ANOMALY":181.2155,"EPHEMERIS_TYPE":0,"CLASSIFICATION_TYPE":"U","NORAD_CAT_ID":67743,"ELEMENT_SET_NO":999,"REV_AT_EPOCH":548,"BSTAR":0.0013003436,"MEAN_MOTION_DOT":0.00071198,"MEAN_MOTION_DDOT":0},{"OBJECT_NAME":"FREGAT DEB","OBJECT_ID":"2011-037GC","EPOCH":"2026-03-08T18:16:05.227104","MEAN_MOTION":13.03401282,"ECCENTRICITY":0.1131102,"INCLINATION":51.4699,"RA_OF_ASC_NODE":347.6571,"ARG_OF_PERICENTER":287.3279,"MEAN_ANOMALY":60.7114,"EPHEMERIS_TYPE":0,"CLASSIFICATION_TYPE":"U","NORAD_CAT_ID":45971,"ELEMENT_SET_NO":999,"REV_AT_EPOCH":25562,"BSTAR":0.0033137456,"MEAN_MOTION_DOT":0.00035525,"MEAN_MOTION_DDOT":0}]
